{
  "type": "FeatureCollection",
  "features": [
    {
      "type": "Feature",
      "properties": {
        "norad_id": 34420,
        "name": "COSMOS 2251 DEB",
        "group": "cosmos-2251-debris",
        "lat": 32.39519491287101,
        "lon": -87.47087006960969,
        "alt_km": 647.804830698512,
        "timestamp": "2025-12-13T05:42:57.966443+00:00",
        "meta_object_name": "COSMOS 2251 DEB",
        "meta_object_id": "1993-036RM",
        "meta_epoch": "2025-12-12T03:07:50.776320",
        "meta_mean_motion": 14.68295104,
        "meta_eccentricity": 0.01066678,
        "meta_inclination": 74.0334,
        "meta_ra_of_asc_node": 105.1374,
        "meta_arg_of_pericenter": 226.4253,
        "meta_mean_anomaly": 187.9562,
        "meta_ephemeris_type": 0,
        "meta_classification_type": "U",
        "meta_norad_cat_id": 34420,
        "meta_element_set_no": 999,
        "meta_rev_at_epoch": 89761,
        "meta_bstar": 0.00040513405,
        "meta_mean_motion_dot": 2.513e-05,
        "meta_mean_motion_ddot": 0,
        "tle_line1": "1 34420U 93036RM  25346.13044880  .00002513  00000+0  40513-3 0  9998",
        "tle_line2": "2 34420  74.0334 105.1374 0106667 226.4253 187.9562 14.68295104897616"
      },
      "geometry": {
        "type": "Point",
        "coordinates": [
          -87.47087006960969,
          32.39519491287101
        ]
      }
    },
    {
      "type": "Feature",
      "properties": {
        "norad_id": 34425,
        "name": "COSMOS 2251 DEB",
        "group": "cosmos-2251-debris",
        "lat": -41.766718849595726,
        "lon": -111.61060371965897,
        "alt_km": 679.8374180422461,
        "timestamp": "2025-12-13T05:42:57.966454+00:00",
        "meta_object_name": "COSMOS 2251 DEB",
        "meta_object_id": "1993-036RS",
        "meta_epoch": "2025-12-12T07:20:57.375168",
        "meta_mean_motion": 14.62126371,
        "meta_eccentricity": 0.00248677,
        "meta_inclination": 74.0201,
        "meta_ra_of_asc_node": 55.3472,
        "meta_arg_of_pericenter": 181.9603,
        "meta_mean_anomaly": 178.147,
        "meta_ephemeris_type": 0,
        "meta_classification_type": "U",
        "meta_norad_cat_id": 34425,
        "meta_element_set_no": 999,
        "meta_rev_at_epoch": 88734,
        "meta_bstar": 0.00093625084,
        "meta_mean_motion_dot": 4.701e-05,
        "meta_mean_motion_ddot": 0,
        "tle_line1": "1 34425U 93036RS  25346.30621962  .00004701  00000+0  93625-3 0  9997",
        "tle_line2": "2 34425  74.0201  55.3472 0024867 181.9603 178.1470 14.62126371887346"
      },
      "geometry": {
        "type": "Point",
        "coordinates": [
          -111.61060371965897,
          -41.766718849595726
        ]
      }
    },
    {
      "type": "Feature",
      "properties": {
        "norad_id": 34429,
        "name": "COSMOS 2251 DEB",
        "group": "cosmos-2251-debris",
        "lat": 58.16880935609841,
        "lon": -165.47927130064437,
        "alt_km": 432.04352020854094,
        "timestamp": "2025-12-13T05:42:57.966464+00:00",
        "meta_object_name": "COSMOS 2251 DEB",
        "meta_object_id": "1993-036RW",
        "meta_epoch": "2025-12-11T22:49:36.139872",
        "meta_mean_motion": 15.41156412,
        "meta_eccentricity": 0.0007285,
        "meta_inclination": 73.9701,
        "meta_ra_of_asc_node": 169.7275,
        "meta_arg_of_pericenter": 11.6809,
        "meta_mean_anomaly": 111.3693,
        "meta_ephemeris_type": 0,
        "meta_classification_type": "U",
        "meta_norad_cat_id": 34429,
        "meta_element_set_no": 999,
        "meta_rev_at_epoch": 89436,
        "meta_bstar": 0.0055962,
        "meta_mean_motion_dot": 0.00239612,
        "meta_mean_motion_ddot": 0,
        "tle_line1": "1 34429U 93036RW  25345.95111273  .00239612  00000+0  55962-2 0  9992",
        "tle_line2": "2 34429  73.9701 169.7275 0007285  11.6809 111.3693 15.41156412894369"
      },
      "geometry": {
        "type": "Point",
        "coordinates": [
          -165.47927130064437,
          58.16880935609841
        ]
      }
    },
    {
      "type": "Feature",
      "properties": {
        "norad_id": 34430,
        "name": "COSMOS 2251 DEB",
        "group": "cosmos-2251-debris",
        "lat": -34.2996832500233,
        "lon": -68.80445953384444,
        "alt_km": 736.4530540469386,
        "timestamp": "2025-12-13T05:42:57.966475+00:00",
        "meta_object_name": "COSMOS 2251 DEB",
        "meta_object_id": "1993-036RX",
        "meta_epoch": "2025-12-12T04:51:51.591744",
        "meta_mean_motion": 14.39630116,
        "meta_eccentricity": 0.00603161,
        "meta_inclination": 74.0523,
        "meta_ra_of_asc_node": 304.3531,
        "meta_arg_of_pericenter": 14.1131,
        "meta_mean_anomaly": 346.1691,
        "meta_ephemeris_type": 0,
        "meta_classification_type": "U",
        "meta_norad_cat_id": 34430,
        "meta_element_set_no": 999,
        "meta_rev_at_epoch": 87947,
        "meta_bstar": 0.0008295348,
        "meta_mean_motion_dot": 2.624e-05,
        "meta_mean_motion_ddot": 0,
        "tle_line1": "1 34430U 93036RX  25346.20268046  .00002624  00000+0  82953-3 0  9996",
        "tle_line2": "2 34430  74.0523 304.3531 0060316  14.1131 346.1691 14.39630116879472"
      },
      "geometry": {
        "type": "Point",
        "coordinates": [
          -68.80445953384444,
          -34.2996832500233
        ]
      }
    },
    {
      "type": "Feature",
      "properties": {
        "norad_id": 34431,
        "name": "COSMOS 2251 DEB",
        "group": "cosmos-2251-debris",
        "lat": -26.582244316679652,
        "lon": 2.5120788094532336,
        "alt_km": 768.0264022155352,
        "timestamp": "2025-12-13T05:42:57.966485+00:00",
        "meta_object_name": "COSMOS 2251 DEB",
        "meta_object_id": "1993-036RY",
        "meta_epoch": "2025-12-11T22:30:12.235968",
        "meta_mean_motion": 14.28769375,
        "meta_eccentricity": 0.0068295,
        "meta_inclination": 74.0747,
        "meta_ra_of_asc_node": 176.6516,
        "meta_arg_of_pericenter": 162.5707,
        "meta_mean_anomaly": 197.781,
        "meta_ephemeris_type": 0,
        "meta_classification_type": "U",
        "meta_norad_cat_id": 34431,
        "meta_element_set_no": 999,
        "meta_rev_at_epoch": 87131,
        "meta_bstar": 0.00096958,
        "meta_mean_motion_dot": 2.479e-05,
        "meta_mean_motion_ddot": 0,
        "tle_line1": "1 34431U 93036RY  25345.93764162  .00002479  00000+0  96958-3 0  9994",
        "tle_line2": "2 34431  74.0747 176.6516 0068295 162.5707 197.7810 14.28769375871311"
      },
      "geometry": {
        "type": "Point",
        "coordinates": [
          2.5120788094532336,
          -26.582244316679652
        ]
      }
    },
    {
      "type": "Feature",
      "properties": {
        "norad_id": 34432,
        "name": "COSMOS 2251 DEB",
        "group": "cosmos-2251-debris",
        "lat": 13.29630901762211,
        "lon": -82.48432495889826,
        "alt_km": 758.0132200213211,
        "timestamp": "2025-12-13T05:42:57.966496+00:00",
        "meta_object_name": "COSMOS 2251 DEB",
        "meta_object_id": "1993-036RZ",
        "meta_epoch": "2025-12-11T10:27:02.840256",
        "meta_mean_motion": 14.02899719,
        "meta_eccentricity": 0.01826275,
        "meta_inclination": 73.8286,
        "meta_ra_of_asc_node": 104.6225,
        "meta_arg_of_pericenter": 187.494,
        "meta_mean_anomaly": 238.0952,
        "meta_ephemeris_type": 0,
        "meta_classification_type": "U",
        "meta_norad_cat_id": 34432,
        "meta_element_set_no": 999,
        "meta_rev_at_epoch": 85666,
        "meta_bstar": 0.0022175295,
        "meta_mean_motion_dot": 3.958e-05,
        "meta_mean_motion_ddot": 0,
        "tle_line1": "1 34432U 93036RZ  25345.43544954  .00003958  00000+0  22175-2 0  9997",
        "tle_line2": "2 34432  73.8286 104.6225 0182627 187.4940 238.0952 14.02899719856661"
      },
      "geometry": {
        "type": "Point",
        "coordinates": [
          -82.48432495889826,
          13.29630901762211
        ]
      }
    },
    {
      "type": "Feature",
      "properties": {
        "norad_id": 34433,
        "name": "COSMOS 2251 DEB",
        "group": "cosmos-2251-debris",
        "lat": -25.87994477949073,
        "lon": -17.945369332975087,
        "alt_km": 843.8221077708968,
        "timestamp": "2025-12-13T05:42:57.966507+00:00",
        "meta_object_name": "COSMOS 2251 DEB",
        "meta_object_id": "1993-036SA",
        "meta_epoch": "2025-12-11T22:08:09.146112",
        "meta_mean_motion": 14.12847566,
        "meta_eccentricity": 0.0152203,
        "meta_inclination": 74.0121,
        "meta_ra_of_asc_node": 156.3888,
        "meta_arg_of_pericenter": 294.6279,
        "meta_mean_anomaly": 63.9071,
        "meta_ephemeris_type": 0,
        "meta_classification_type": "U",
        "meta_norad_cat_id": 34433,
        "meta_element_set_no": 999,
        "meta_rev_at_epoch": 85938,
        "meta_bstar": 0.0017616,
        "meta_mean_motion_dot": 3.632e-05,
        "meta_mean_motion_ddot": 0,
        "tle_line1": "1 34433U 93036SA  25345.92232808  .00003632  00000+0  17616-2 0  9997",
        "tle_line2": "2 34433  74.0121 156.3888 0152203 294.6279  63.9071 14.12847566859388"
      },
      "geometry": {
        "type": "Point",
        "coordinates": [
          -17.945369332975087,
          -25.87994477949073
        ]
      }
    }
  ]
}